[{"OBJECT_NAME":"STARLINK-2547","OBJECT_ID":"2021-036L","EPOCH":"2026-03-09T07:08:45.311424","MEAN_MOTION":15.30198344,"ECCENTRICITY":0.00014543,"INCLINATION":53.1618,"RA_OF_ASC_NODE":77.2705,"ARG_OF_PERICENTER":83.1642,"MEAN_ANOMALY":276.9524,"EPHEMERIS_TYPE":0,"CLASSIFICATION_TYPE":"U","NORAD_CAT_ID":48286,"ELEMENT_SET_NO":999,"REV_AT_EPOCH":26834,"BSTAR":2.5494918e-5,"MEAN_MOTION_DOT":3.96e-6,"MEAN_MOTION_DDOT":0},{"OBJECT_NAME":"CZ-2D R\/B","OBJECT_ID":"2025-227B","EPOCH":"2026-03-09T22:11:26.043072","MEAN_MOTION":15.30393637,"ECCENTRICITY":0.00198129,"INCLINATION":80.1514,"RA_OF_ASC_NODE":267.3771,"ARG_OF_PERICENTER":270.3655,"MEAN_ANOMALY":89.5307,"EPHEMERIS_TYPE":0,"CLASSIFICATION_TYPE":"U","NORAD_CAT_ID":65946,"ELEMENT_SET_NO":999,"REV_AT_EPOCH":2254,"BSTAR":0.00032251975,"MEAN_MOTION_DOT":9.557e-5,"MEAN_MOTION_DDOT":0}]
